{
  "type": "FeatureCollection",
  "name": "example_geometry",
  "crs": {
    "type": "name",
    "properties": {
      "name": "EPSG:4326"
    }
  },
  "features": [
    {
      "type": "Feature",
      "properties": {
        "SiteID": "S1",
        "HYBAS_ID": 1
      },
      "geometry": {
        "type": "Polygon",
        "coordinates": [[
          [0.0,0.0],
          [1.0,0.0],
          [1.0,1.0],
          [0.0,1.0],
          [0.0,0.0]
        ]]
      }
    },
    {
      "type": "Feature",
      "properties": {
        "SiteID": "S2",
        "HYBAS_ID": 2
      },
      "geometry": {
        "type": "Polygon",
        "coordinates": [[
          [1.0,0.0],
          [2.0,0.0],
          [2.0,1.0],
          [1.0,1.0],
          [1.0,0.0]
        ]]
      }
    },
    {
      "type": "Feature",
      "properties": {
        "SiteID": "S3",
        "HYBAS_ID": 3
      },
      "geometry": {
        "type": "Polygon",
        "coordinates": [[
          [0.0,1.0],
          [1.0,1.0],
          [1.0,2.0],
          [0.0,2.0],
          [0.0,1.0]
        ]]
      }
    },
    {
      "type": "Feature",
      "properties": {
        "SiteID": "S4",
        "HYBAS_ID": 4
      },
      "geometry": {
        "type": "Polygon",
        "coordinates": [[
          [1.0,1.0],
          [2.0,1.0],
          [2.0,2.0],
          [1.0,2.0],
          [1.0,1.0]
        ]]
      }
    }
  ]
}
